SL-16 R/B               
1 25861U 99039B   19125.51981562  .00000015  00000-0  96219-5 0  9995
2 25861  98.1871 115.1138 0016449  35.4891  74.7908 14.78527915 67335
DELTA 2 R/B             
1 25876U 99041E   19124.52487885 -.00000115  00000-0  19845-4 0  9994
2 25876  51.7656 128.4409 0530567 228.7579 126.6474 14.04325439 11023
HELIOS 1B               
1 25977U 99064A   19124.92024200  .00000015  00000-0  89336-5 0  9994
2 25977  98.2242 261.9420 0001075 154.3162 205.8104 14.82414710314446
TERRA                   
1 25994U 99068A   19125.51832412  .00000102  00000-0  32614-4 0  9998
2 25994  98.2071 200.7074 0001515 113.5203 246.6158 14.57111903 30765
SL-16 R/B               
1 26070U 00006B   19124.91973265  .00000157  00000-0  10495-3 0  9995
2 26070  71.0004 313.8339 0015594  21.0038 339.1722 14.15451409994673
TITAN 4B R/B            
1 26474U 00047B   19125.17962321  .00000028  00000-0  13440-4 0  9999
2 26474  67.9922 122.1227 0060785 286.2903  73.1559 14.95816132 18114
ENVISAT                 
1 27386U 02009A   19125.56216590 -.00000010  00000-0  10293-4 0  9990
2 27386  98.1526 148.8372 0001375  89.2219  21.9991 14.37947457899850
IDEFIX & ARIANE 42P R/B 
1 27422U 02021B   19124.92293409 -.00000029  00000-0  46507-5 0  9996
2 27422  98.2967  99.3271 0012466   8.1298 352.0085 14.29270852886665
AQUA                    
1 27424U 02022A   19124.92887484  .00000044  00000-0  19802-4 0  9994
2 27424  98.2005  66.4574 0001920 142.9607 265.2501 14.57117751904236
CZ-4B R/B               
1 27432U 02024C   19125.01507465 -.00000028  00000-0  94937-5 0  9990
2 27432  99.0680 115.6902 0049497 251.2894 178.4555 14.14078550875864
MIDORI II (ADEOS-II)    
1 27597U 02056A   19124.89348303  .00000015  00000-0  23603-4 0  9992
2 27597  98.4684  79.0620 0002144  96.9182 263.2243 14.27395595853380
H-2A R/B                
1 27601U 02056E   19124.77975059  .00000032  00000-0  26317-4 0  9993
2 27601  98.2799 175.3440 0073185  57.5358  55.3638 14.31890009856063
CZ-4B R/B               
1 28059U 03049C   19124.74305662  .00000003  00000-0  12715-4 0  9993
2 28059  98.4980  31.4935 0049226 312.0383  47.6627 14.52560234823335
CZ-2C R/B               
1 28222U 04012C   19124.91410949  .00000653  00000-0  43220-4 0  9996
2 28222  97.6220  83.0411 0047330 354.3001  70.0866 15.10052565824229
SL-16 R/B               
1 28353U 04021B   19124.95639327 -.00000092  00000-0 -23125-4 0  9999
2 28353  71.0017  78.1537 0007247 248.1465 111.8887 14.14224173769241
CZ-4B R/B               
1 28415U 04035C   19125.15700071 -.00000194  00000-0 -82532-5 0  9992
2 28415  97.6660 164.8279 0050439 307.6461  52.0195 15.06671210802002
CZ-2C R/B               
1 28480U 04046B   19124.77963181  .00000001  00000-0  15759-4 0  9997
2 28480  98.1341 185.1319 0141847 357.6856 112.7829 14.25696847752043
ARIANE 5 R/B            
1 28499U 04049H   19124.87692058  .00000058  00000-0  14405-4 0  9992
2 28499  98.0488 220.5297 0092873 156.3332 317.5523 14.79961522775551
CZ-2D R/B               
1 28738U 05024B   19124.63955761  .00000348  00000-0  24036-4 0  9992
2 28738  97.4189 154.9159 0012830 152.1131 208.0790 15.11780752759486
SUZAKU (ASTRO-EII)      
1 28773U 05025A   19125.22819868  .00000709  00000-0  30610-4 0  9991
2 28773  31.3815 156.4533 0004476  50.0558 310.0482 15.17032170761730
ALOS (DAICHI)           
1 28931U 06002A   19125.39400580  .00000121  00000-0  32320-4 0  9996
2 28931  97.8195 126.9838 0001312  28.5416 331.5863 14.62602839707907
H-2A R/B                
1 28932U 06002B   19124.90801720  .00000291  00000-0  33218-4 0  9999
2 28932  98.2769  88.1230 0088078 221.1004 200.8485 14.91958950720186
AKARI (ASTRO-F)         
1 28939U 06005A   19124.86715686  .00003242  00000-0  92543-4 0  9994
2 28939  98.1919  49.0055 0096759 316.5770  42.7876 15.32366216718137
RESURS-DK 1             
1 29228U 06021A   19125.17734221  .00000074  00000-0  12934-4 0  9991
2 29228  69.9341 149.8191 0005215 331.9084  28.1795 15.02430960711271
GENESIS 1               
1 29252U 06029A   19124.74939032  .00000513  00000-0  34967-4 0  9993
2 29252  64.5053 201.4084 0051448 245.2470 114.3294 15.17683053705915
CZ-4B R/B               
1 29507U 06046C   19124.63892931 -.00000019  00000-0  34954-5 0  9998
2 29507  97.7610 142.4389 0052039  99.4574 261.2536 15.00381933683963
CZ-2C R/B               
1 31114U 07010B   19125.56199939  .00000014  00000-0  25456-4 0  9998
2 31114  98.3174 359.6457 0060202  19.1628 341.1795 14.19292716625016
COSMO-SKYMED 1          
1 31598U 07023A   19125.56634891  .00000415  00000-0  58666-4 0  9993
2 31598  97.8905 309.5638 0001398  95.0162 265.1226 14.82151191644263
GENESIS 2               
1 31789U 07028A   19124.73961518  .00000267  00000-0  23741-4 0  9998
2 31789  64.5049 242.0185 0046656 292.3604  67.2577 15.16903715653010
COSMOS 2428             
1 31792U 07029A   19125.21761257 -.00000328  00000-0 -15144-3 0  9992
2 31792  70.9512  51.7170 0010192 320.3585  39.6789 14.12502451611081
SL-16 R/B               
1 31793U 07029B   19125.16172123 -.00000218  00000-0 -89041-4 0  9991
2 31793  70.9770  26.1271 0002329 256.3896 211.1610 14.14410049611850
KORONAS-FOTON           
1 33504U 09003A   19124.87527905  .00000699  00000-0  35254-4 0  9994
2 33504  82.4412 270.2655 0017691 254.5880 105.3398 15.15390906565454
H-2A R/B                
1 38341U 12025E   19125.22752800  .00000119  00000-0  21335-4 0  9992
2 38341  98.4435 250.2232 0056913 107.3626 253.3822 14.83879283376766
CUSAT 2 & FALCON 9 R/B  
1 39271U 13055G   19124.89806954  .00003572  00000-0  88275-4 0  9993
2 39271  80.9681 346.3040 0602215 318.6475  37.0553 14.44579258291538
SL-4 R/B                
1 39679U 14021B   19125.47249569 -.00000014  00000-0  17727-4 0  9990
2 39679  51.6163 204.8438 0172594 329.0758  30.0136 15.06051783277701
ALOS-2                  
1 39766U 14029A   19125.46762528  .00000083  00000-0  17961-4 0  9994
2 39766  97.9194 222.9262 0001558  89.5347 270.6030 14.79475087267221
SL-27 R/B               
1 40354U 14084B   19124.89840578  .00000698  00000-0  18609-4 0  9990
2 40354  74.7369 154.9916 0038455 193.2487 166.7719 15.39642666245093
ASTRO-H (HITOMI)        
1 41337U 16012A   19125.17316494  .00000248  00000-0  13240-4 0  9999
2 41337  31.0054  84.5473 0012402 346.4830  13.5472 14.98574433176050
TIANGONG-2              
1 41765U 16057A   19125.45533693  .00004522  00000-0  55879-4 0  9999
2 41765  42.7828 221.7632 0008845 323.9360  82.4508 15.61417820150367
SHENZHOU-11 MODULE      
1 41868U 16061G   19124.52927124  .00013292  00000-0  74586-4 0  9991
2 41868  42.7929 155.2760 0004548  86.2180  40.2871 15.79157171140960
SAOCOM 1A               
1 43641U 18076A   19125.43960053  .00000000  00000-0  66146-5 0  9996
2 43641  97.8907 312.4194 0001449  78.9492 281.1889 14.82149167 31016
